STARLINK-11711 [DTC]    
1 64378U 25127J   25254.24924222  .00217185  00000+0  16505-2 0  9992
2 64378  42.9976  85.9117 0000525 321.8182  38.2648 15.70863840 15396
STARLINK-11743 [DTC]    
1 64379U 25127K   25254.22812936  .00171767  00000+0  13136-2 0  9991
2 64379  42.9984  86.6376 0001098 263.7027  96.3715 15.70859346 15272
STARLINK-11744 [DTC]    
1 64380U 25127L   25253.95785870  .00144991  00000+0  11121-2 0  9999
2 64380  42.9977  88.0441 0002852 273.1555  86.8986 15.70874280 15239
STARLINK-11692 [DTC]    
1 64381U 25127M   25253.94193378  .00057147  00000+0  44582-3 0  9999
2 64381  42.9981  87.9153 0001479 276.4682  83.6017 15.70838623 15347
STARLINK-11740 [DTC]    
1 64382U 25127N   25254.24392581  .00225252  00000+0  17097-2 0  9995
2 64382  42.9999  85.8698 0001861 278.7278  81.3379 15.70869463 15284
STARLINK-34299          
1 64383U 25127P   25254.01428190  .00020082  00000+0  73746-3 0  9995
2 64383  43.0028 114.8761 0001978 269.3273  90.7352 15.27572763 14936
STARLINK-34271          
1 64384U 25127Q   25254.00271055  .00014084  00000+0  52003-3 0  9999
2 64384  43.0036 114.7845 0001382 280.3304  79.7392 15.27600230 14982
STARLINK-34100          
1 64385U 25127R   25253.94117910  .00015317  00000+0  56477-3 0  9990
2 64385  43.0035 115.1869 0001676 268.6845  91.3815 15.27591865 14925
STARLINK-34269          
1 64386U 25127S   25254.02569501  .00015623  00000+0  57593-3 0  9998
2 64386  42.9992 114.0896 0001956 270.1917  89.8711 15.27586665 14999
STARLINK-34351          
1 64387U 25127T   25254.02440848  .00021604  00000+0  79167-3 0  9998
2 64387  43.0001 114.0798 0001953 273.8281  86.2348 15.27605717 14992
STARLINK-34198          
1 64388U 25127U   25254.02311928  .00024430  00000+0  89340-3 0  9999
2 64388  43.0007 114.0739 0002132 265.3710  94.6898 15.27613609 14999
STARLINK-34279          
1 64389U 25127V   25254.02069979  .00018212  00000+0  66983-3 0  9995
2 64389  43.0011 114.9236 0001658 272.6744  87.3918 15.27573105 14983
STARLINK-34292          
1 64390U 25127W   25253.99885617  .00008268  00000+0  30949-3 0  9990
2 64390  43.0032 114.7525 0001573 274.1142  85.9530 15.27594463 14986
STARLINK-34278          
1 64391U 25127X   25253.96287700  .00020265  00000+0  74330-3 0  9990
2 64391  42.9994 114.4770 0001757 285.4911  74.5746 15.27606853 14984
STARLINK-33802          
1 64392U 25127Y   25254.01042191  .00024358  00000+0  89102-3 0  9991
2 64392  43.0027 114.8474 0001390 281.6495  78.4201 15.27606807 15032
STARLINK-34419          
1 64412U 25129A   25254.03947770  .00006384  00000+0  54222-3 0  9999
2 64412  70.0020 167.5654 0002885 269.8553  90.2275 14.98336639 14397
