[{"OBJECT_NAME":"STARLINK-11711 [DTC]","OBJECT_ID":"2025-127J","EPOCH":"2025-09-11T05:58:54.527808","MEAN_MOTION":15.7086384,"ECCENTRICITY":5.257e-5,"INCLINATION":42.9976,"RA_OF_ASC_NODE":85.9117,"ARG_OF_PERICENTER":321.8182,"MEAN_ANOMALY":38.2648,"EPHEMERIS_TYPE":0,"CLASSIFICATION_TYPE":"U","NORAD_CAT_ID":64378,"ELEMENT_SET_NO":999,"REV_AT_EPOCH":1539,"BSTAR":0.0016505361,"MEAN_MOTION_DOT":0.00217185,"MEAN_MOTION_DDOT":0},{"OBJECT_NAME":"STARLINK-11743 [DTC]","OBJECT_ID":"2025-127K","EPOCH":"2025-09-11T05:28:30.376704","MEAN_MOTION":15.70859346,"ECCENTRICITY":0.00010986,"INCLINATION":42.9984,"RA_OF_ASC_NODE":86.6376,"ARG_OF_PERICENTER":263.7027,"MEAN_ANOMALY":96.3715,"EPHEMERIS_TYPE":0,"CLASSIFICATION_TYPE":"U","NORAD_CAT_ID":64379,"ELEMENT_SET_NO":999,"REV_AT_EPOCH":1527,"BSTAR":0.0013135694,"MEAN_MOTION_DOT":0.00171767,"MEAN_MOTION_DDOT":0},{"OBJECT_NAME":"STARLINK-11744 [DTC]","OBJECT_ID":"2025-127L","EPOCH":"2025-09-10T22:59:18.991680","MEAN_MOTION":15.7087428,"ECCENTRICITY":0.00028521,"INCLINATION":42.9977,"RA_OF_ASC_NODE":88.0441,"ARG_OF_PERICENTER":273.1555,"MEAN_ANOMALY":86.8986,"EPHEMERIS_TYPE":0,"CLASSIFICATION_TYPE":"U","NORAD_CAT_ID":64380,"ELEMENT_SET_NO":999,"REV_AT_EPOCH":1523,"BSTAR":0.0011121241,"MEAN_MOTION_DOT":0.00144991,"MEAN_MOTION_DDOT":0},{"OBJECT_NAME":"STARLINK-11692 [DTC]","OBJECT_ID":"2025-127M","EPOCH":"2025-09-10T22:36:23.078592","MEAN_MOTION":15.70838623,"ECCENTRICITY":0.00014794,"INCLINATION":42.9981,"RA_OF_ASC_NODE":87.9153,"ARG_OF_PERICENTER":276.4682,"MEAN_ANOMALY":83.6017,"EPHEMERIS_TYPE":0,"CLASSIFICATION_TYPE":"U","NORAD_CAT_ID":64381,"ELEMENT_SET_NO":999,"REV_AT_EPOCH":1534,"BSTAR":0.00044581871,"MEAN_MOTION_DOT":0.00057147,"MEAN_MOTION_DDOT":0},{"OBJECT_NAME":"STARLINK-11740 [DTC]","OBJECT_ID":"2025-127N","EPOCH":"2025-09-11T05:51:15.189984","MEAN_MOTION":15.70869463,"ECCENTRICITY":0.00018614,"INCLINATION":42.9999,"RA_OF_ASC_NODE":85.8698,"ARG_OF_PERICENTER":278.7278,"MEAN_ANOMALY":81.3379,"EPHEMERIS_TYPE":0,"CLASSIFICATION_TYPE":"U","NORAD_CAT_ID":64382,"ELEMENT_SET_NO":999,"REV_AT_EPOCH":1528,"BSTAR":0.0017096594,"MEAN_MOTION_DOT":0.00225252,"MEAN_MOTION_DDOT":0},{"OBJECT_NAME":"STARLINK-34299","OBJECT_ID":"2025-127P","EPOCH":"2025-09-11T00:20:33.956160","MEAN_MOTION":15.27572763,"ECCENTRICITY":0.00019782,"INCLINATION":43.0028,"RA_OF_ASC_NODE":114.8761,"ARG_OF_PERICENTER":269.3273,"MEAN_ANOMALY":90.7352,"EPHEMERIS_TYPE":0,"CLASSIFICATION_TYPE":"U","NORAD_CAT_ID":64383,"ELEMENT_SET_NO":999,"REV_AT_EPOCH":1493,"BSTAR":0.00073746452,"MEAN_MOTION_DOT":0.00020082,"MEAN_MOTION_DDOT":0},{"OBJECT_NAME":"STARLINK-34271","OBJECT_ID":"2025-127Q","EPOCH":"2025-09-11T00:03:54.191520","MEAN_MOTION":15.2760023,"ECCENTRICITY":0.00013821,"INCLINATION":43.0036,"RA_OF_ASC_NODE":114.7845,"ARG_OF_PERICENTER":280.3304,"MEAN_ANOMALY":79.7392,"EPHEMERIS_TYPE":0,"CLASSIFICATION_TYPE":"U","NORAD_CAT_ID":64384,"ELEMENT_SET_NO":999,"REV_AT_EPOCH":1498,"BSTAR":0.00052003172,"MEAN_MOTION_DOT":0.00014084,"MEAN_MOTION_DDOT":0},{"OBJECT_NAME":"STARLINK-34100","OBJECT_ID":"2025-127R","EPOCH":"2025-09-10T22:35:17.874240","MEAN_MOTION":15.27591865,"ECCENTRICITY":0.00016761,"INCLINATION":43.0035,"RA_OF_ASC_NODE":115.1869,"ARG_OF_PERICENTER":268.6845,"MEAN_ANOMALY":91.3815,"EPHEMERIS_TYPE":0,"CLASSIFICATION_TYPE":"U","NORAD_CAT_ID":64385,"ELEMENT_SET_NO":999,"REV_AT_EPOCH":1492,"BSTAR":0.00056476772,"MEAN_MOTION_DOT":0.00015317,"MEAN_MOTION_DDOT":0},{"OBJECT_NAME":"STARLINK-34269","OBJECT_ID":"2025-127S","EPOCH":"2025-09-11T00:37:00.048864","MEAN_MOTION":15.27586665,"ECCENTRICITY":0.00019563,"INCLINATION":42.9992,"RA_OF_ASC_NODE":114.0896,"ARG_OF_PERICENTER":270.1917,"MEAN_ANOMALY":89.8711,"EPHEMERIS_TYPE":0,"CLASSIFICATION_TYPE":"U","NORAD_CAT_ID":64386,"ELEMENT_SET_NO":999,"REV_AT_EPOCH":1499,"BSTAR":0.00057593067,"MEAN_MOTION_DOT":0.00015623,"MEAN_MOTION_DDOT":0},{"OBJECT_NAME":"STARLINK-34351","OBJECT_ID":"2025-127T","EPOCH":"2025-09-11T00:35:08.892672","MEAN_MOTION":15.27605717,"ECCENTRICITY":0.00019532,"INCLINATION":43.0001,"RA_OF_ASC_NODE":114.0798,"ARG_OF_PERICENTER":273.8281,"MEAN_ANOMALY":86.2348,"EPHEMERIS_TYPE":0,"CLASSIFICATION_TYPE":"U","NORAD_CAT_ID":64387,"ELEMENT_SET_NO":999,"REV_AT_EPOCH":1499,"BSTAR":0.0007916734,"MEAN_MOTION_DOT":0.00021604,"MEAN_MOTION_DDOT":0},{"OBJECT_NAME":"STARLINK-34198","OBJECT_ID":"2025-127U","EPOCH":"2025-09-11T00:33:17.505792","MEAN_MOTION":15.27613609,"ECCENTRICITY":0.00021325,"INCLINATION":43.0007,"RA_OF_ASC_NODE":114.0739,"ARG_OF_PERICENTER":265.371,"MEAN_ANOMALY":94.6898,"EPHEMERIS_TYPE":0,"CLASSIFICATION_TYPE":"U","NORAD_CAT_ID":64388,"ELEMENT_SET_NO":999,"REV_AT_EPOCH":1499,"BSTAR":0.00089339911,"MEAN_MOTION_DOT":0.0002443,"MEAN_MOTION_DDOT":0},{"OBJECT_NAME":"STARLINK-34279","OBJECT_ID":"2025-127V","EPOCH":"2025-09-11T00:29:48.461856","MEAN_MOTION":15.27573105,"ECCENTRICITY":0.00016589,"INCLINATION":43.0011,"RA_OF_ASC_NODE":114.9236,"ARG_OF_PERICENTER":272.6744,"MEAN_ANOMALY":87.3918,"EPHEMERIS_TYPE":0,"CLASSIFICATION_TYPE":"U","NORAD_CAT_ID":64389,"ELEMENT_SET_NO":999,"REV_AT_EPOCH":1498,"BSTAR":0.00066982751,"MEAN_MOTION_DOT":0.00018212,"MEAN_MOTION_DDOT":0},{"OBJECT_NAME":"STARLINK-34292","OBJECT_ID":"2025-127W","EPOCH":"2025-09-10T23:58:21.173088","MEAN_MOTION":15.27594463,"ECCENTRICITY":0.00015735,"INCLINATION":43.0032,"RA_OF_ASC_NODE":114.7525,"ARG_OF_PERICENTER":274.1142,"MEAN_ANOMALY":85.953,"EPHEMERIS_TYPE":0,"CLASSIFICATION_TYPE":"U","NORAD_CAT_ID":64390,"ELEMENT_SET_NO":999,"REV_AT_EPOCH":1498,"BSTAR":0.00030949386,"MEAN_MOTION_DOT":8.268e-5,"MEAN_MOTION_DDOT":0},{"OBJECT_NAME":"STARLINK-34278","OBJECT_ID":"2025-127X","EPOCH":"2025-09-10T23:06:32.572800","MEAN_MOTION":15.27606853,"ECCENTRICITY":0.00017572,"INCLINATION":42.9994,"RA_OF_ASC_NODE":114.477,"ARG_OF_PERICENTER":285.4911,"MEAN_ANOMALY":74.5746,"EPHEMERIS_TYPE":0,"CLASSIFICATION_TYPE":"U","NORAD_CAT_ID":64391,"ELEMENT_SET_NO":999,"REV_AT_EPOCH":1498,"BSTAR":0.00074329609,"MEAN_MOTION_DOT":0.00020265,"MEAN_MOTION_DDOT":0},{"OBJECT_NAME":"STARLINK-33802","OBJECT_ID":"2025-127Y","EPOCH":"2025-09-11T00:15:00.453024","MEAN_MOTION":15.27606807,"ECCENTRICITY":0.00013906,"INCLINATION":43.0027,"RA_OF_ASC_NODE":114.8474,"ARG_OF_PERICENTER":281.6495,"MEAN_ANOMALY":78.4201,"EPHEMERIS_TYPE":0,"CLASSIFICATION_TYPE":"U","NORAD_CAT_ID":64392,"ELEMENT_SET_NO":999,"REV_AT_EPOCH":1503,"BSTAR":0.00089101616,"MEAN_MOTION_DOT":0.00024358,"MEAN_MOTION_DDOT":0},{"OBJECT_NAME":"STARLINK-34419","OBJECT_ID":"2025-129A","EPOCH":"2025-09-11T00:56:50.873280","MEAN_MOTION":14.98336639,"ECCENTRICITY":0.00028854,"INCLINATION":70.002,"RA_OF_ASC_NODE":167.5654,"ARG_OF_PERICENTER":269.8553,"MEAN_ANOMALY":90.2275,"EPHEMERIS_TYPE":0,"CLASSIFICATION_TYPE":"U","NORAD_CAT_ID":64412,"ELEMENT_SET_NO":999,"REV_AT_EPOCH":1439,"BSTAR":0.00054222241,"MEAN_MOTION_DOT":6.384e-5,"MEAN_MOTION_DDOT":0}]
